{
  "type": "FeatureCollection",
  "features": [
    {
      "type": "Feature",
      "properties": {
        "norad_id": 34350,
        "name": "IRIDIUM 33 DEB",
        "group": "iridium-33-debris",
        "lat": -34.23576765565097,
        "lon": -177.9747890546821,
        "alt_km": 750.5579647700588,
        "timestamp": "2025-12-20T07:33:51.198378+00:00",
        "meta_object_name": "IRIDIUM 33 DEB",
        "meta_object_id": "1997-051ES",
        "meta_epoch": "2025-12-19T12:52:33.855744",
        "meta_mean_motion": 14.4540166,
        "meta_eccentricity": 0.0023302,
        "meta_inclination": 86.3271,
        "meta_ra_of_asc_node": 359.8577,
        "meta_arg_of_pericenter": 114.287,
        "meta_mean_anomaly": 10.4643,
        "meta_ephemeris_type": 0,
        "meta_classification_type": "U",
        "meta_norad_cat_id": 34350,
        "meta_element_set_no": 999,
        "meta_rev_at_epoch": 88391,
        "meta_bstar": 0.00023595,
        "meta_mean_motion_dot": 8.53e-06,
        "meta_mean_motion_ddot": 0,
        "tle_line1": "1 34350U 97051ES  25353.53650296  .00000853  00000+0  23595-3 0  9993",
        "tle_line2": "2 34350  86.3271 359.8577 0023302 114.2870  10.4643 14.45401660883919"
      },
      "geometry": {
        "type": "Point",
        "coordinates": [
          -177.9747890546821,
          -34.23576765565097
        ]
      }
    },
    {
      "type": "Feature",
      "properties": {
        "norad_id": 34366,
        "name": "IRIDIUM 33 DEB",
        "group": "iridium-33-debris",
        "lat": 58.16952861526301,
        "lon": 51.88980352639548,
        "alt_km": 697.9558728338761,
        "timestamp": "2025-12-20T07:33:51.198388+00:00",
        "meta_object_name": "IRIDIUM 33 DEB",
        "meta_object_id": "1997-051FJ",
        "meta_epoch": "2025-12-19T22:11:59.415936",
        "meta_mean_motion": 14.54110408,
        "meta_eccentricity": 0.00229835,
        "meta_inclination": 86.3692,
        "meta_ra_of_asc_node": 46.1886,
        "meta_arg_of_pericenter": 117.2578,
        "meta_mean_anomaly": 60.1636,
        "meta_ephemeris_type": 0,
        "meta_classification_type": "U",
        "meta_norad_cat_id": 34366,
        "meta_element_set_no": 999,
        "meta_rev_at_epoch": 88286,
        "meta_bstar": 0.00060535024,
        "meta_mean_motion_dot": 2.586e-05,
        "meta_mean_motion_ddot": 0,
        "tle_line1": "1 34366U 97051FJ  25353.92499324  .00002586  00000+0  60535-3 0  9996",
        "tle_line2": "2 34366  86.3692  46.1886 0022983 117.2578  60.1636 14.54110408882868"
      },
      "geometry": {
        "type": "Point",
        "coordinates": [
          51.88980352639548,
          58.16952861526301
        ]
      }
    },
    {
      "type": "Feature",
      "properties": {
        "norad_id": 34375,
        "name": "IRIDIUM 33 DEB",
        "group": "iridium-33-debris",
        "lat": 69.98967218105142,
        "lon": -170.48856193579087,
        "alt_km": 762.2619934048207,
        "timestamp": "2025-12-20T07:33:51.198399+00:00",
        "meta_object_name": "IRIDIUM 33 DEB",
        "meta_object_id": "1997-051FT",
        "meta_epoch": "2025-12-19T23:28:28.676352",
        "meta_mean_motion": 14.18004758,
        "meta_eccentricity": 0.01036712,
        "meta_inclination": 86.4321,
        "meta_ra_of_asc_node": 179.7825,
        "meta_arg_of_pericenter": 104.0892,
        "meta_mean_anomaly": 47.2924,
        "meta_ephemeris_type": 0,
        "meta_classification_type": "U",
        "meta_norad_cat_id": 34375,
        "meta_element_set_no": 999,
        "meta_rev_at_epoch": 86814,
        "meta_bstar": 0.00031026465,
        "meta_mean_motion_dot": 6.9e-06,
        "meta_mean_motion_ddot": 0,
        "tle_line1": "1 34375U 97051FT  25353.97810968  .00000690  00000+0  31026-3 0  9999",
        "tle_line2": "2 34375  86.4321 179.7825 0103671 104.0892  47.2924 14.18004758868142"
      },
      "geometry": {
        "type": "Point",
        "coordinates": [
          -170.48856193579087,
          69.98967218105142
        ]
      }
    },
    {
      "type": "Feature",
      "properties": {
        "norad_id": 34376,
        "name": "IRIDIUM 33 DEB",
        "group": "iridium-33-debris",
        "lat": -38.78831219661603,
        "lon": -173.88297336370198,
        "alt_km": 686.7105367429313,
        "timestamp": "2025-12-20T07:33:51.198409+00:00",
        "meta_object_name": "IRIDIUM 33 DEB",
        "meta_object_id": "1997-051FU",
        "meta_epoch": "2025-12-19T19:04:33.086496",
        "meta_mean_motion": 14.62657013,
        "meta_eccentricity": 0.00280058,
        "meta_inclination": 86.2977,
        "meta_ra_of_asc_node": 3.368,
        "meta_arg_of_pericenter": 143.3641,
        "meta_mean_anomaly": 216.9493,
        "meta_ephemeris_type": 0,
        "meta_classification_type": "U",
        "meta_norad_cat_id": 34376,
        "meta_element_set_no": 999,
        "meta_rev_at_epoch": 88110,
        "meta_bstar": 0.00093405367,
        "meta_mean_motion_dot": 4.799e-05,
        "meta_mean_motion_ddot": 0,
        "tle_line1": "1 34376U 97051FU  25353.79482739  .00004799  00000+0  93405-3 0  9994",
        "tle_line2": "2 34376  86.2977   3.3680 0028005 143.3641 216.9493 14.62657013881108"
      },
      "geometry": {
        "type": "Point",
        "coordinates": [
          -173.88297336370198,
          -38.78831219661603
        ]
      }
    },
    {
      "type": "Feature",
      "properties": {
        "norad_id": 34486,
        "name": "IRIDIUM 33 DEB",
        "group": "iridium-33-debris",
        "lat": -82.35171730065362,
        "lon": -143.45458618066087,
        "alt_km": 595.976528811585,
        "timestamp": "2025-12-20T07:33:51.198420+00:00",
        "meta_object_name": "IRIDIUM 33 DEB",
        "meta_object_id": "1997-051GB",
        "meta_epoch": "2025-12-19T11:48:44.838432",
        "meta_mean_motion": 14.96085447,
        "meta_eccentricity": 0.0013897,
        "meta_inclination": 86.393,
        "meta_ra_of_asc_node": 8.9076,
        "meta_arg_of_pericenter": 92.9331,
        "meta_mean_anomaly": 60.6575,
        "meta_ephemeris_type": 0,
        "meta_classification_type": "U",
        "meta_norad_cat_id": 34486,
        "meta_element_set_no": 999,
        "meta_rev_at_epoch": 89087,
        "meta_bstar": 0.0015014,
        "meta_mean_motion_dot": 0.00016952,
        "meta_mean_motion_ddot": 0,
        "tle_line1": "1 34486U 97051GB  25353.49218563  .00016952  00000+0  15014-2 0  9998",
        "tle_line2": "2 34486  86.3930   8.9076 0013897  92.9331  60.6575 14.96085447890870"
      },
      "geometry": {
        "type": "Point",
        "coordinates": [
          -143.45458618066087,
          -82.35171730065362
        ]
      }
    },
    {
      "type": "Feature",
      "properties": {
        "norad_id": 34487,
        "name": "IRIDIUM 33 DEB",
        "group": "iridium-33-debris",
        "lat": -77.36295925189852,
        "lon": -7.457597064821115,
        "alt_km": 778.8795947595945,
        "timestamp": "2025-12-20T07:33:51.198430+00:00",
        "meta_object_name": "IRIDIUM 33 DEB",
        "meta_object_id": "1997-051GC",
        "meta_epoch": "2025-12-18T07:45:56.041056",
        "meta_mean_motion": 14.43223269,
        "meta_eccentricity": 0.00331222,
        "meta_inclination": 86.3431,
        "meta_ra_of_asc_node": 9.9731,
        "meta_arg_of_pericenter": 110.9986,
        "meta_mean_anomaly": 270.0816,
        "meta_ephemeris_type": 0,
        "meta_classification_type": "U",
        "meta_norad_cat_id": 34487,
        "meta_element_set_no": 999,
        "meta_rev_at_epoch": 88329,
        "meta_bstar": 0.00015301486,
        "meta_mean_motion_dot": 5.38e-06,
        "meta_mean_motion_ddot": 0,
        "tle_line1": "1 34487U 97051GC  25352.32356529  .00000538  00000+0  15301-3 0  9998",
        "tle_line2": "2 34487  86.3431   9.9731 0033122 110.9986 270.0816 14.43223269883297"
      },
      "geometry": {
        "type": "Point",
        "coordinates": [
          -7.457597064821115,
          -77.36295925189852
        ]
      }
    },
    {
      "type": "Feature",
      "properties": {
        "norad_id": 34488,
        "name": "IRIDIUM 33 DEB",
        "group": "iridium-33-debris",
        "lat": 76.25392843212067,
        "lon": 106.81530855121471,
        "alt_km": 462.11153903735067,
        "timestamp": "2025-12-20T07:33:51.198441+00:00",
        "meta_object_name": "IRIDIUM 33 DEB",
        "meta_object_id": "1997-051GD",
        "meta_epoch": "2025-12-18T20:36:21.699936",
        "meta_mean_motion": 15.30898743,
        "meta_eccentricity": 0.00115528,
        "meta_inclination": 86.3236,
        "meta_ra_of_asc_node": 302.7776,
        "meta_arg_of_pericenter": 41.1127,
        "meta_mean_anomaly": 319.099,
        "meta_ephemeris_type": 0,
        "meta_classification_type": "U",
        "meta_norad_cat_id": 34488,
        "meta_element_set_no": 999,
        "meta_rev_at_epoch": 89333,
        "meta_bstar": 0.0035214405,
        "meta_mean_motion_dot": 0.0010661,
        "meta_mean_motion_ddot": 0,
        "tle_line1": "1 34488U 97051GD  25352.85858449  .00106610  00000+0  35214-2 0  9997",
        "tle_line2": "2 34488  86.3236 302.7776 0011552  41.1127 319.0990 15.30898743893334"
      },
      "geometry": {
        "type": "Point",
        "coordinates": [
          106.81530855121471,
          76.25392843212067
        ]
      }
    }
  ]
}